KUIPER-00176            
1 65788U 25217AC  25300.23800506  .00039358  00000+0  10614-2 0  9996
2 65788  51.8728 289.0890 0002266  98.5560 261.5684 15.37414474  4895
KUIPER-00101            
1 65947U 25228A   25300.36430830  .00017652  00000+0  52856-3 0  9996
2 65947  51.8799 243.9741 0005843 182.5219 177.5738 15.34587086  3299
KUIPER-00113            
1 65948U 25228B   25300.49231052  .00022728  00000+0  67131-3 0  9998
2 65948  51.8802 243.3358 0006249 179.5221 180.5772 15.34846143  3310
KUIPER-00117            
1 65949U 25228C   25300.49267218  .00025302  00000+0  74677-3 0  9996
2 65949  51.8802 243.3378 0006045 179.6580 180.4411 15.34808171  3314
KUIPER-00121            
1 65950U 25228D   25300.43286731  .00031744  00000+0  95061-3 0  9990
2 65950  51.8814 243.6888 0005619 198.5629 161.5152 15.34228427  3309
KUIPER-00122            
1 65951U 25228E   25300.49902839  .00034131  00000+0  10254-2 0  9994
2 65951  51.8799 243.3770 0005883 203.4456 156.6262 15.34089450  3315
KUIPER-00123            
1 65952U 25228F   25300.43298558  .00026241  00000+0  79029-3 0  9994
2 65952  51.8799 243.6833 0005347 193.3369 166.7476 15.34152019  3304
KUIPER-00124            
1 65953U 25228G   25300.49945373  .00025419  00000+0  76854-3 0  9994
2 65953  51.8810 243.3828 0005479 208.5933 151.4753 15.34044526  3315
