<?xml version="1.0" encoding="UTF-8"?>
<ndm xmlns:xsi="http://www.w3.org/2001/XMLSchema-instance" xsi:noNamespaceSchemaLocation="https://sanaregistry.org/r/ndmxml_unqualified/ndmxml-2.0.0-master-2.0.xsd">
<omm id="CCSDS_OMM_VERS" version="2.0">
<header><CREATION_DATE/><ORIGINATOR/></header><body><segment><metadata><OBJECT_NAME>KUIPER-00176</OBJECT_NAME><OBJECT_ID>2025-217AC</OBJECT_ID><CENTER_NAME>EARTH</CENTER_NAME><REF_FRAME>TEME</REF_FRAME><TIME_SYSTEM>UTC</TIME_SYSTEM><MEAN_ELEMENT_THEORY>SGP4</MEAN_ELEMENT_THEORY></metadata><data><meanElements><EPOCH>2025-10-27T05:42:43.637184</EPOCH><MEAN_MOTION>15.37414474</MEAN_MOTION><ECCENTRICITY>.0002266</ECCENTRICITY><INCLINATION>51.8728</INCLINATION><RA_OF_ASC_NODE>289.0890</RA_OF_ASC_NODE><ARG_OF_PERICENTER>98.5560</ARG_OF_PERICENTER><MEAN_ANOMALY>261.5684</MEAN_ANOMALY></meanElements><tleParameters><EPHEMERIS_TYPE>0</EPHEMERIS_TYPE><CLASSIFICATION_TYPE>U</CLASSIFICATION_TYPE><NORAD_CAT_ID>65788</NORAD_CAT_ID><ELEMENT_SET_NO>999</ELEMENT_SET_NO><REV_AT_EPOCH>489</REV_AT_EPOCH><BSTAR>.10614E-2</BSTAR><MEAN_MOTION_DOT>.39358E-3</MEAN_MOTION_DOT><MEAN_MOTION_DDOT>0</MEAN_MOTION_DDOT></tleParameters></data></segment></body></omm>
<omm id="CCSDS_OMM_VERS" version="2.0">
<header><CREATION_DATE/><ORIGINATOR/></header><body><segment><metadata><OBJECT_NAME>KUIPER-00101</OBJECT_NAME><OBJECT_ID>2025-228A</OBJECT_ID><CENTER_NAME>EARTH</CENTER_NAME><REF_FRAME>TEME</REF_FRAME><TIME_SYSTEM>UTC</TIME_SYSTEM><MEAN_ELEMENT_THEORY>SGP4</MEAN_ELEMENT_THEORY></metadata><data><meanElements><EPOCH>2025-10-27T08:44:36.237120</EPOCH><MEAN_MOTION>15.34587086</MEAN_MOTION><ECCENTRICITY>.0005843</ECCENTRICITY><INCLINATION>51.8799</INCLINATION><RA_OF_ASC_NODE>243.9741</RA_OF_ASC_NODE><ARG_OF_PERICENTER>182.5219</ARG_OF_PERICENTER><MEAN_ANOMALY>177.5738</MEAN_ANOMALY></meanElements><tleParameters><EPHEMERIS_TYPE>0</EPHEMERIS_TYPE><CLASSIFICATION_TYPE>U</CLASSIFICATION_TYPE><NORAD_CAT_ID>65947</NORAD_CAT_ID><ELEMENT_SET_NO>999</ELEMENT_SET_NO><REV_AT_EPOCH>329</REV_AT_EPOCH><BSTAR>.52856E-3</BSTAR><MEAN_MOTION_DOT>.17652E-3</MEAN_MOTION_DOT><MEAN_MOTION_DDOT>0</MEAN_MOTION_DDOT></tleParameters></data></segment></body></omm>
<omm id="CCSDS_OMM_VERS" version="2.0">
<header><CREATION_DATE/><ORIGINATOR/></header><body><segment><metadata><OBJECT_NAME>KUIPER-00113</OBJECT_NAME><OBJECT_ID>2025-228B</OBJECT_ID><CENTER_NAME>EARTH</CENTER_NAME><REF_FRAME>TEME</REF_FRAME><TIME_SYSTEM>UTC</TIME_SYSTEM><MEAN_ELEMENT_THEORY>SGP4</MEAN_ELEMENT_THEORY></metadata><data><meanElements><EPOCH>2025-10-27T11:48:55.628928</EPOCH><MEAN_MOTION>15.34846143</MEAN_MOTION><ECCENTRICITY>.0006249</ECCENTRICITY><INCLINATION>51.8802</INCLINATION><RA_OF_ASC_NODE>243.3358</RA_OF_ASC_NODE><ARG_OF_PERICENTER>179.5221</ARG_OF_PERICENTER><MEAN_ANOMALY>180.5772</MEAN_ANOMALY></meanElements><tleParameters><EPHEMERIS_TYPE>0</EPHEMERIS_TYPE><CLASSIFICATION_TYPE>U</CLASSIFICATION_TYPE><NORAD_CAT_ID>65948</NORAD_CAT_ID><ELEMENT_SET_NO>999</ELEMENT_SET_NO><REV_AT_EPOCH>331</REV_AT_EPOCH><BSTAR>.67131E-3</BSTAR><MEAN_MOTION_DOT>.22728E-3</MEAN_MOTION_DOT><MEAN_MOTION_DDOT>0</MEAN_MOTION_DDOT></tleParameters></data></segment></body></omm>
<omm id="CCSDS_OMM_VERS" version="2.0">
<header><CREATION_DATE/><ORIGINATOR/></header><body><segment><metadata><OBJECT_NAME>KUIPER-00117</OBJECT_NAME><OBJECT_ID>2025-228C</OBJECT_ID><CENTER_NAME>EARTH</CENTER_NAME><REF_FRAME>TEME</REF_FRAME><TIME_SYSTEM>UTC</TIME_SYSTEM><MEAN_ELEMENT_THEORY>SGP4</MEAN_ELEMENT_THEORY></metadata><data><meanElements><EPOCH>2025-10-27T11:49:26.876352</EPOCH><MEAN_MOTION>15.34808171</MEAN_MOTION><ECCENTRICITY>.0006045</ECCENTRICITY><INCLINATION>51.8802</INCLINATION><RA_OF_ASC_NODE>243.3378</RA_OF_ASC_NODE><ARG_OF_PERICENTER>179.6580</ARG_OF_PERICENTER><MEAN_ANOMALY>180.4411</MEAN_ANOMALY></meanElements><tleParameters><EPHEMERIS_TYPE>0</EPHEMERIS_TYPE><CLASSIFICATION_TYPE>U</CLASSIFICATION_TYPE><NORAD_CAT_ID>65949</NORAD_CAT_ID><ELEMENT_SET_NO>999</ELEMENT_SET_NO><REV_AT_EPOCH>331</REV_AT_EPOCH><BSTAR>.74677E-3</BSTAR><MEAN_MOTION_DOT>.25302E-3</MEAN_MOTION_DOT><MEAN_MOTION_DDOT>0</MEAN_MOTION_DDOT></tleParameters></data></segment></body></omm>
<omm id="CCSDS_OMM_VERS" version="2.0">
<header><CREATION_DATE/><ORIGINATOR/></header><body><segment><metadata><OBJECT_NAME>KUIPER-00121</OBJECT_NAME><OBJECT_ID>2025-228D</OBJECT_ID><CENTER_NAME>EARTH</CENTER_NAME><REF_FRAME>TEME</REF_FRAME><TIME_SYSTEM>UTC</TIME_SYSTEM><MEAN_ELEMENT_THEORY>SGP4</MEAN_ELEMENT_THEORY></metadata><data><meanElements><EPOCH>2025-10-27T10:23:19.735584</EPOCH><MEAN_MOTION>15.34228427</MEAN_MOTION><ECCENTRICITY>.0005619</ECCENTRICITY><INCLINATION>51.8814</INCLINATION><RA_OF_ASC_NODE>243.6888</RA_OF_ASC_NODE><ARG_OF_PERICENTER>198.5629</ARG_OF_PERICENTER><MEAN_ANOMALY>161.5152</MEAN_ANOMALY></meanElements><tleParameters><EPHEMERIS_TYPE>0</EPHEMERIS_TYPE><CLASSIFICATION_TYPE>U</CLASSIFICATION_TYPE><NORAD_CAT_ID>65950</NORAD_CAT_ID><ELEMENT_SET_NO>999</ELEMENT_SET_NO><REV_AT_EPOCH>330</REV_AT_EPOCH><BSTAR>.95061E-3</BSTAR><MEAN_MOTION_DOT>.31744E-3</MEAN_MOTION_DOT><MEAN_MOTION_DDOT>0</MEAN_MOTION_DDOT></tleParameters></data></segment></body></omm>
<omm id="CCSDS_OMM_VERS" version="2.0">
<header><CREATION_DATE/><ORIGINATOR/></header><body><segment><metadata><OBJECT_NAME>KUIPER-00122</OBJECT_NAME><OBJECT_ID>2025-228E</OBJECT_ID><CENTER_NAME>EARTH</CENTER_NAME><REF_FRAME>TEME</REF_FRAME><TIME_SYSTEM>UTC</TIME_SYSTEM><MEAN_ELEMENT_THEORY>SGP4</MEAN_ELEMENT_THEORY></metadata><data><meanElements><EPOCH>2025-10-27T11:58:36.052896</EPOCH><MEAN_MOTION>15.34089450</MEAN_MOTION><ECCENTRICITY>.0005883</ECCENTRICITY><INCLINATION>51.8799</INCLINATION><RA_OF_ASC_NODE>243.3770</RA_OF_ASC_NODE><ARG_OF_PERICENTER>203.4456</ARG_OF_PERICENTER><MEAN_ANOMALY>156.6262</MEAN_ANOMALY></meanElements><tleParameters><EPHEMERIS_TYPE>0</EPHEMERIS_TYPE><CLASSIFICATION_TYPE>U</CLASSIFICATION_TYPE><NORAD_CAT_ID>65951</NORAD_CAT_ID><ELEMENT_SET_NO>999</ELEMENT_SET_NO><REV_AT_EPOCH>331</REV_AT_EPOCH><BSTAR>.10254E-2</BSTAR><MEAN_MOTION_DOT>.34131E-3</MEAN_MOTION_DOT><MEAN_MOTION_DDOT>0</MEAN_MOTION_DDOT></tleParameters></data></segment></body></omm>
<omm id="CCSDS_OMM_VERS" version="2.0">
<header><CREATION_DATE/><ORIGINATOR/></header><body><segment><metadata><OBJECT_NAME>KUIPER-00123</OBJECT_NAME><OBJECT_ID>2025-228F</OBJECT_ID><CENTER_NAME>EARTH</CENTER_NAME><REF_FRAME>TEME</REF_FRAME><TIME_SYSTEM>UTC</TIME_SYSTEM><MEAN_ELEMENT_THEORY>SGP4</MEAN_ELEMENT_THEORY></metadata><data><meanElements><EPOCH>2025-10-27T10:23:29.954112</EPOCH><MEAN_MOTION>15.34152019</MEAN_MOTION><ECCENTRICITY>.0005347</ECCENTRICITY><INCLINATION>51.8799</INCLINATION><RA_OF_ASC_NODE>243.6833</RA_OF_ASC_NODE><ARG_OF_PERICENTER>193.3369</ARG_OF_PERICENTER><MEAN_ANOMALY>166.7476</MEAN_ANOMALY></meanElements><tleParameters><EPHEMERIS_TYPE>0</EPHEMERIS_TYPE><CLASSIFICATION_TYPE>U</CLASSIFICATION_TYPE><NORAD_CAT_ID>65952</NORAD_CAT_ID><ELEMENT_SET_NO>999</ELEMENT_SET_NO><REV_AT_EPOCH>330</REV_AT_EPOCH><BSTAR>.79029E-3</BSTAR><MEAN_MOTION_DOT>.26241E-3</MEAN_MOTION_DOT><MEAN_MOTION_DDOT>0</MEAN_MOTION_DDOT></tleParameters></data></segment></body></omm>
<omm id="CCSDS_OMM_VERS" version="2.0">
<header><CREATION_DATE/><ORIGINATOR/></header><body><segment><metadata><OBJECT_NAME>KUIPER-00124</OBJECT_NAME><OBJECT_ID>2025-228G</OBJECT_ID><CENTER_NAME>EARTH</CENTER_NAME><REF_FRAME>TEME</REF_FRAME><TIME_SYSTEM>UTC</TIME_SYSTEM><MEAN_ELEMENT_THEORY>SGP4</MEAN_ELEMENT_THEORY></metadata><data><meanElements><EPOCH>2025-10-27T11:59:12.802272</EPOCH><MEAN_MOTION>15.34044526</MEAN_MOTION><ECCENTRICITY>.0005479</ECCENTRICITY><INCLINATION>51.8810</INCLINATION><RA_OF_ASC_NODE>243.3828</RA_OF_ASC_NODE><ARG_OF_PERICENTER>208.5933</ARG_OF_PERICENTER><MEAN_ANOMALY>151.4753</MEAN_ANOMALY></meanElements><tleParameters><EPHEMERIS_TYPE>0</EPHEMERIS_TYPE><CLASSIFICATION_TYPE>U</CLASSIFICATION_TYPE><NORAD_CAT_ID>65953</NORAD_CAT_ID><ELEMENT_SET_NO>999</ELEMENT_SET_NO><REV_AT_EPOCH>331</REV_AT_EPOCH><BSTAR>.76854E-3</BSTAR><MEAN_MOTION_DOT>.25419E-3</MEAN_MOTION_DOT><MEAN_MOTION_DDOT>0</MEAN_MOTION_DDOT></tleParameters></data></segment></body></omm>

</ndm>
